FENGYUN 1C DEB          
1 30331U 99025AAS 17345.60082101  .00000166  00000-0  14970-3 0  9990
2 30331  99.2856   3.7677 0100473  78.0926  40.9209 13.95138219553377
